OBJECT_NAME,OBJECT_ID,EPOCH,MEAN_MOTION,ECCENTRICITY,INCLINATION,RA_OF_ASC_NODE,ARG_OF_PERICENTER,MEAN_ANOMALY,EPHEMERIS_TYPE,CLASSIFICATION_TYPE,NORAD_CAT_ID,ELEMENT_SET_NO,REV_AT_EPOCH,BSTAR,MEAN_MOTION_DOT,MEAN_MOTION_DDOT
EUTELSAT HOTBIRD 13F,2022-134A,2026-07-15T20:50:38.609088,1.00270151,.00020174,0.0597,284.0495,72.6460,262.6869,0,U,54048,999,1366,0,.76E-6,0
LDPE-2,2022-144A,2026-07-15T11:20:38.612832,1.00543934,.00023594,5.6794,63.4142,109.0609,160.7234,0,U,54219,999,1212,0,.14E-6,0
EUTELSAT HOTBIRD 13G,2022-146A,2026-07-15T20:50:38.609088,1.00269584,.0001958,0.0181,232.9748,307.5730,78.8463,0,U,54225,999,775,0,0,0
ZHONGXING-19,2022-148A,2026-07-15T19:16:41.880864,1.00270248,.00032239,0.0205,60.0313,81.2674,244.7161,0,U,54230,999,1366,0,0,0
GALAXY 31 (G-31),2022-153A,2026-07-15T21:20:46.593024,1.00271370,.00010006,0.0132,88.5751,30.9418,13.3854,0,U,54243,999,742,0,.3E-7,0
GALAXY 32 (G-32),2022-153B,2026-07-15T19:46:24.033792,1.00271405,.00013172,0.0077,41.0430,359.1234,99.0870,0,U,54244,999,1343,0,-.184E-5,0
EUTELSAT 10B,2022-157A,2026-07-15T20:15:38.358144,1.00272855,.00017393,0.0585,93.6406,33.4745,120.4605,0,U,54259,999,1331,0,.58E-6,0
GALAXY 35 (G-35),2022-170A,2026-07-15T21:28:53.315328,1.00272330,.00017836,0.0160,70.1971,46.4378,46.2025,0,U,54741,999,1318,0,-.173E-5,0
GALAXY 36 (G-36),2022-170B,2026-07-15T14:39:27.997344,1.00270281,.00023966,0.0054,142.8857,316.1422,325.2844,0,U,54742,999,1305,0,-.195E-5,0
METEOSAT-12 (MTG-I1),2022-170C,2026-07-15T21:16:38.625888,1.00267890,.00038354,0.7258,19.8591,81.8567,150.8405,0,U,54743,999,1326,0,-.19E-6,0
SHIJIAN-23 (SJ-23),2023-002A,2026-07-15T18:59:00.412800,1.00076519,.0003428,3.7889,77.9512,271.6051,357.5202,0,U,55131,999,1279,0,-.365E-5,0
APSTAR-6E,2023-005A,2026-07-14T19:34:42.235968,1.00265114,.00021361,0.0207,271.3385,293.8948,155.1380,0,U,55239,999,1896,0,0,0
USA 342,2023-008A,2026-07-09T06:55:38.597952,1.00269378,.0000262,0.0052,352.2306,7.3445,55.4773,0,U,55263,999,1273,0,0,0
LDPE-3A,2023-008B,2026-07-15T22:33:53.954784,0.99149853,.00015289,2.4209,81.3073,76.8488,248.8767,0,U,55264,999,1209,0,-.298E-5,0
ELEKTRO-L 4,2023-016A,2026-07-15T17:22:30.372960,1.00270579,.00015122,0.1191,278.0931,255.4146,186.4742,0,U,55506,999,1261,0,-.69E-6,0
AMAZONAS NEXUS,2023-017A,2026-07-13T18:18:24.198912,1.00268939,.00043642,0.0356,42.7695,42.6416,59.8176,0,U,55508,999,731,0,-.287E-5,0
ZHONGXING-26,2023-023A,2026-07-15T20:48:27.192096,1.00254114,.00029634,0.0611,70.5099,15.8710,284.5491,0,U,55686,999,1251,0,-.365E-5,0
LUCH-5X (OLYMP-K 2),2023-031A,2026-07-15T11:57:15.138432,1.00271236,.0000977,0.0319,96.7468,175.3046,262.5805,0,U,55841,999,1222,0,.23E-6,0
GAOFEN-13 02,2023-036A,2026-07-15T15:10:47.727840,1.00274215,.00036978,1.0278,4.6412,336.5562,328.2138,0,U,55912,999,1237,0,-.228E-5,0
SES-18,2023-038A,2026-07-14T23:11:30.885216,1.00271627,.00008417,0.0536,255.5543,312.6979,329.3569,0,U,55970,999,1238,0,-.11E-5,0
SES-19,2023-038B,2026-07-15T12:43:42.919104,1.00269536,.0001517,0.0103,1.5399,111.9485,235.9011,0,U,55971,999,1237,0,.78E-6,0
INTELSAT 40E (IS-40E),2023-052A,2026-07-15T22:17:55.573152,1.00271721,.00022226,0.0162,73.9833,70.9743,32.2902,0,U,56174,999,1211,0,-.185E-5,0
VIASAT-3 F1,2023-060A,2026-07-14T19:50:08.246112,1.00270317,.00007716,0.0149,26.8771,79.6667,34.7004,0,U,56370,999,1171,0,0,0
ARCTURUS,2023-060B,2026-07-15T22:23:54.911616,1.00594375,.00010354,2.8459,79.5837,131.7464,158.3014,0,U,56371,999,1174,0,-.351E-5,0
GS-1,2023-060C,2026-07-15T18:55:36.403392,1.00266601,.00033739,2.7966,79.4935,280.7224,306.6091,0,U,56372,999,782,0,-.234E-5,0
BEIDOU-3 G4,2023-066A,2026-07-15T22:35:23.811648,1.00272241,.00049075,0.4597,339.1777,186.7327,246.7843,0,U,56564,999,1168,0,-.291E-5,0
ARABSAT-7B (BADR-8),2023-075A,2026-07-14T11:49:49.380096,1.00271079,.0003416,0.0743,30.7036,358.3138,106.7877,0,U,56757,999,1139,0,.137E-5,0
NVS-01 (IRNSS-1J),2023-076A,2026-07-15T22:32:24.098784,1.00264402,.00035324,2.0996,243.0452,6.7382,151.4967,0,U,56759,999,1140,0,-.347E-5,0
NUSANTARA TIGA (SATRIA),2023-086A,2026-07-14T05:33:23.574240,1.00272319,.00026572,0.0345,12.3074,332.6277,176.5079,0,U,57045,999,1003,0,-.241E-5,0
H2SAT (HEINRICH HERTZ),2023-093A,2026-07-15T21:16:38.625888,1.00270469,.0000436,0.0255,98.6642,47.0977,107.8056,0,U,57213,999,1120,0,-.9E-7,0
SYRACUSE 4B,2023-093B,2026-07-13T13:26:01.019328,1.00269537,.0000448,0.0280,56.3015,204.3313,225.8578,0,U,57214,999,723,0,0,0
